NORAD_CAT_ID,OBJECT_NAME,OBJECT_TYPE,EPOCH,MEAN_MOTION,ECCENTRICITY,INCLINATION,RA_OF_ASC_NODE,ARG_OF_PERICENTER,MEAN_ANOMALY,BSTAR,MEAN_MOTION_DOT,MEAN_MOTION_DDOT,TLE_LINE0,TLE_LINE1,TLE_LINE2,SEMIMAJOR_AXIS,PERIOD,APOGEE,PERIGEE,DECAYED
50177.0,STARLINK-3282,PAYLOAD,2024-04-27 03:43:07,15.08857641,0.0001332,53.2174,68.645,96.4266,263.6878,-7.3757e-05,-1.462e-05,0.0,0 STARLINK-3282,1 50177U 21125X   24118.15494552 -.00001462  00000-0 -73757-4 0  9990,2 50177  53.2174  68.6450 0001332  96.4266 263.6878 15.08857641133221,6917.826,95.436,540.613,538.77,0.0
50177.0,STARLINK-3282,PAYLOAD,2024-04-27 13:15:24,15.08868698,0.0001475,53.2189,66.8623,90.797,269.3191,-3.0806e-07,-2.93e-06,0.0,0 STARLINK-3282,1 50177U 21125X   24118.55237050 -.00000293  00000-0 -30806-6 0  9993,2 50177  53.2189  66.8623 0001475  90.7970 269.3191 15.08868698133287,6917.793,95.436,540.678,538.637,0.0
50177.0,STARLINK-3282,PAYLOAD,2024-04-28 03:33:56,15.08812559,0.0001461,53.218,64.1883,82.8465,277.2694,-6.7554e-05,-1.362e-05,0.0,0 STARLINK-3282,1 50177U 21125X   24119.14857450 -.00001362  00000-0 -67554-4 0  9997,2 50177  53.2180  64.1883 0001461  82.8465 277.2694 15.08812559133374,6917.964,95.439,540.84,538.819,0.0
50177.0,STARLINK-3282,PAYLOAD,2024-04-28 13:06:14,15.08829264,0.0001446,53.2189,62.4011,89.1078,271.008,-8.7174e-06,-4.27e-06,0.0,0 STARLINK-3282,1 50177U 21125X   24119.54600461 -.00000427  00000-0 -87174-5 0  9991,2 50177  53.2189  62.4011 0001446  89.1078 271.0080 15.08829264133439,6917.913,95.438,540.779,538.778,0.0
50177.0,STARLINK-3282,PAYLOAD,2024-04-29 05:00:05,15.0884019,0.000158,53.2195,59.4292,84.6543,275.4629,0.00016368,2.318e-05,0.0,0 STARLINK-3282,1 50177U 21125X   24120.20839871  .00002318  00000-0  16368-3 0  9999,2 50177  53.2195  59.4292 0001580  84.6543 275.4629 15.08840190133538,6917.88,95.438,540.838,538.652,0.0
50177.0,STARLINK-3282,PAYLOAD,2024-04-29 12:57:01,15.08854076,0.0001596,53.219,57.9415,73.7437,286.373,0.00050192,7.712e-05,0.0,0 STARLINK-3282,1 50177U 21125X   24120.53959527  .00007712  00000-0  50192-3 0  9992,2 50177  53.2190  57.9415 0001596  73.7437 286.3730 15.08854076134073,6917.837,95.437,540.806,538.598,0.0
50177.0,STARLINK-3282,PAYLOAD,2024-04-30 04:50:52,15.08853485,0.0001571,53.2175,54.968,78.6009,281.5159,0.00051507,7.922e-05,0.0,0 STARLINK-3282,1 50177U 21125X   24121.20199782  .00007922  00000-0  51507-3 0  9990,2 50177  53.2175  54.9680 0001571  78.6009 281.5159 15.08853485133680,6917.839,95.437,540.791,538.617,0.0
50177.0,STARLINK-3282,PAYLOAD,2024-04-30 12:47:48,15.08856272,0.0001612,53.2174,53.4813,78.9941,281.1233,0.00068708,0.00010669,0.0,0 STARLINK-3282,1 50177U 21125X   24121.53319629  .00010669  00000-0  68708-3 0  9993,2 50177  53.2174  53.4813 0001612  78.9941 281.1233 15.08856272134222,6917.831,95.437,540.811,538.58,0.0
50177.0,STARLINK-3282,PAYLOAD,2024-05-01 01:30:53,15.08844946,0.0001254,53.2174,51.101,97.0258,263.0877,0.00069215,0.00010746,0.0,0 STARLINK-3282,1 50177U 21125X   24122.06311743  .00010746  00000-0  69215-3 0  9991,2 50177  53.2174  51.1010 0001254  97.0258 263.0877 15.08844946133813,6917.865,95.437,540.598,538.863,0.0
50177.0,STARLINK-3282,PAYLOAD,2024-05-01 12:38:35,15.08859022,0.0001398,53.2168,49.0201,91.1239,268.9914,0.001125,0.00017671,0.0,0 STARLINK-3282,1 50177U 21125X   24122.52679519  .00017671  00000-0  11250-2 0  9999,2 50177  53.2168  49.0201 0001398  91.1239 268.9914 15.08859022134376,6917.822,95.436,540.654,538.72,0.0
50177.0,STARLINK-3282,PAYLOAD,2024-05-01 19:00:07,15.08849643,0.0002212,53.2151,47.8297,100.2968,259.8274,0.00065731,0.00010191,0.0,0 STARLINK-3282,1 50177U 21125X   24122.79175684  .00010191  00000-0  65731-3 0  9996,2 50177  53.2151  47.8297 0002212 100.2968 259.8274 15.08849643133922,6917.851,95.437,541.246,538.186,0.0
50177.0,STARLINK-3282,PAYLOAD,2024-05-02 04:32:26,15.08843388,0.0001642,53.2173,46.0455,99.7625,260.3553,0.00029826,4.462e-05,0.0,0 STARLINK-3282,1 50177U 21125X   24123.18919769  .00004462  00000-0  29826-3 0  9999,2 50177  53.2173  46.0455 0001642  99.7625 260.3553 15.08843388133984,6917.87,95.437,540.871,538.599,0.0
50177.0,STARLINK-3282,PAYLOAD,2024-05-03 01:12:27,15.08853695,0.000145,53.2167,42.1808,95.5262,264.5895,0.00059114,9.136e-05,0.0,0 STARLINK-3282,1 50177U 21125X   24124.05031467  .00009136  00000-0  59114-3 0  9992,2 50177  53.2167  42.1808 0001450  95.5262 264.5895 15.08853695134601,6917.839,95.437,540.707,538.7,0.0
50177.0,STARLINK-3282,PAYLOAD,2024-05-03 18:41:41,15.08844833,0.0001386,53.2171,38.909,91.8797,268.2354,0.00025898,3.837e-05,0.0,0 STARLINK-3282,1 50177U 21125X   24124.77895726  .00003837  00000-0  25898-3 0  9991,2 50177  53.2171  38.9090 0001386  91.8797 268.2354 15.08844833134225,6917.866,95.437,540.689,538.772,0.0
50177.0,STARLINK-3282,PAYLOAD,2024-05-03 21:52:28,15.08813934,0.0001339,53.2171,38.314,66.5927,293.5206,-0.0007615,-0.00012378,0.0,0 STARLINK-3282,1 50177U 21125X   24124.91144087 -.00012378  00000-0 -76150-3 0  9993,2 50177  53.2171  38.3140 0001339  66.5927 293.5206 15.08813934134738,6917.96,95.439,540.751,538.899,0.0
50177.0,STARLINK-3282,PAYLOAD,2024-05-04 01:03:15,15.08818979,0.0001255,53.2173,37.7193,78.5024,281.6109,-0.00040057,-6.654e-05,0.0,0 STARLINK-3282,1 50177U 21125X   24125.04392372 -.00006654  00000-0 -40057-3 0  9997,2 50177  53.2173  37.7193 0001255  78.5024 281.6109 15.08818979134261,6917.945,95.439,540.678,538.941,0.0
50177.0,STARLINK-3282,PAYLOAD,2024-05-04 16:57:07,15.0882584,0.0001278,53.2179,34.7459,74.3045,285.8088,0.00031412,4.713e-05,0.0,0 STARLINK-3282,1 50177U 21125X   24125.70633311  .00004713  00000-0  31412-3 0  9998,2 50177  53.2179  34.7459 0001278  74.3045 285.8088 15.08825840134369,6917.924,95.438,540.673,538.905,0.0
50177.0,STARLINK-3282,PAYLOAD,2024-05-05 00:54:03,15.08846031,0.0001248,53.2178,33.2605,75.7711,284.342,0.0014175,0.00022347,0.0,0 STARLINK-3282,1 50177U 21125X   24126.03753512  .00022347  00000-0  14175-2 0  9990,2 50177  53.2178  33.2605 0001248  75.7711 284.3420 15.08846031134412,6917.862,95.437,540.59,538.864,0.0
50177.0,STARLINK-3282,PAYLOAD,2024-05-05 16:47:53,15.08865367,0.0001223,53.2179,30.2873,79.5346,280.5784,0.0012738,0.00020057,0.0,0 STARLINK-3282,1 50177U 21125X   24126.69992924  .00020057  00000-0  12738-2 0  9993,2 50177  53.2179  30.2873 0001223  79.5346 280.5784 15.08865367134511,6917.803,95.436,540.514,538.822,0.0
50177.0,STARLINK-3282,PAYLOAD,2024-05-05 21:34:03,15.08867976,0.0001242,53.218,29.3948,77.3183,282.7948,0.001064,0.00016699,0.0,0 STARLINK-3282,1 50177U 21125X   24126.89864698  .00016699  00000-0  10640-2 0  9998,2 50177  53.2180  29.3948 0001242  77.3183 282.7948 15.08867976135033,6917.795,95.436,540.519,538.801,0.0
50177.0,STARLINK-3282,PAYLOAD,2024-05-06 10:17:07,15.08882604,0.0001183,53.2175,27.0161,80.1167,279.9959,0.0011674,0.00018362,0.0,0 STARLINK-3282,1 50177U 21125X   24127.42855593  .00018362  00000-0  11674-2 0  9999,2 50177  53.2175  27.0161 0001183  80.1167 279.9959 15.08882604134626,6917.75,95.435,540.434,538.797,0.0
50177.0,STARLINK-3282,PAYLOAD,2024-05-06 21:24:49,15.08859299,0.0002393,53.2182,24.9351,96.8144,263.312,0.00019215,2.773e-05,0.0,0 STARLINK-3282,1 50177U 21125X   24127.89223663  .00002773  00000-0  19215-3 0  9996,2 50177  53.2182  24.9351 0002393  96.8144 263.3120 15.08859299134692,6917.821,95.436,541.342,538.031,0.0
50177.0,STARLINK-3282,PAYLOAD,2024-05-07 10:07:53,15.08874417,0.0001424,53.2182,22.5563,73.4221,286.6928,0.0011053,0.00017363,0.0,0 STARLINK-3282,1 50177U 21125X   24128.42214941  .00017363  00000-0  11053-2 0  9997,2 50177  53.2182  22.5563 0001424  73.4221 286.6928 15.08874417135269,6917.775,95.435,540.625,538.655,0.0
50177.0,STARLINK-3282,PAYLOAD,2024-05-07 21:15:36,15.08823918,0.0001261,53.2181,20.4755,85.3042,274.8094,-0.00021862,-3.764e-05,0.0,0 STARLINK-3282,1 50177U 21125X   24128.88583803 -.00003764  00000-0 -21862-3 0  9995,2 50177  53.2181  20.4755 0001261  85.3042 274.8094 15.08823918134846,6917.93,95.439,540.667,538.922,0.0
50177.0,STARLINK-3282,PAYLOAD,2024-05-08 09:58:42,15.0883251,0.000126,53.2178,18.096,90.6785,269.4352,0.00090644,0.00014164,0.0,0 STARLINK-3282,1 50177U 21125X   24129.41576408  .00014164  00000-0  90644-3 0  9996,2 50177  53.2178  18.0960 0001260  90.6785 269.4352 15.08832510135414,6917.903,95.438,540.64,538.897,0.0
50177.0,STARLINK-3282,PAYLOAD,2024-05-08 22:41:47,15.08829752,0.0001286,53.2172,15.7161,91.3549,268.759,0.00043768,6.683e-05,0.0,0 STARLINK-3282,1 50177U 21125X   24129.94568951  .00006683  00000-0  43768-3 0  9990,2 50177  53.2172  15.7161 0001286  91.3549 268.7590 15.08829752135497,6917.912,95.438,540.666,538.887,0.0
50177.0,STARLINK-3282,PAYLOAD,2024-05-09 01:52:33,15.08837479,0.0001476,53.2177,15.1193,102.098,258.0178,0.00049716,7.633e-05,0.0,0 STARLINK-3282,1 50177U 21125X   24130.07816870  .00007633  00000-0  49716-3 0  9997,2 50177  53.2177  15.1193 0001476 102.0980 258.0178 15.08837479135029,6917.888,95.438,540.774,538.732,0.0
50177.0,STARLINK-3282,PAYLOAD,2024-05-09 09:49:29,15.08848998,0.0001435,53.2185,13.6341,93.6054,266.5103,0.00081717,0.00012744,0.0,0 STARLINK-3282,1 50177U 21125X   24130.40936764  .00012744  00000-0  81717-3 0  9995,2 50177  53.2185  13.6341 0001435  93.6054 266.5103 15.08848998135567,6917.853,95.437,540.711,538.725,0.0
50177.0,STARLINK-3282,PAYLOAD,2024-05-09 22:32:34,15.08839492,0.0001526,53.219,11.2552,101.0277,259.0887,0.00028848,4.306e-05,0.0,0 STARLINK-3282,1 50177U 21125X   24130.93929111  .00004306  00000-0  28848-3 0  9992,2 50177  53.2190  11.2552 0001526 101.0277 259.0887 15.08839492135647,6917.882,95.438,540.803,538.691,0.0
50177.0,STARLINK-3282,PAYLOAD,2024-05-10 01:43:20,15.08843395,0.0001543,53.2186,10.6585,117.7016,242.4133,0.00032516,4.891e-05,0.0,0 STARLINK-3282,1 50177U 21125X   24131.07176840  .00004891  00000-0  32516-3 0  9997,2 50177  53.2186  10.6585 0001543 117.7016 242.4133 15.08843395135170,6917.87,95.437,540.802,538.668,0.0
